HIMAWARI-8              
1 40267U 14060A   23286.49778207 -.00000268  00000+0  00000+0 0  9990
2 40267   0.0296 110.8818 0000780  99.7335 131.0692  1.00271776 33061
